[
    {
        "Altitude(m)": 617710.702441176,
        "Argument of Periapsis(deg)": 0.0,
        "Eccentricity": 0.0,
        "Inclination(deg)": 60.0,
        "Latitude(deg)": -41.102830100504974,
        "Longitude(deg)": -105.03337330332428,
        "Mean Anomaly(deg)": 310.9091000000001,
        "RAAN(deg)": 25.0,
        "Satellite Name": "Test1 129",
        "Satellite Number": 129,
        "Semi-Major Axis(m)": 6980739.136638005,
        "Time(s)": 0
    },
    {
        "Altitude(m)": 617518.0007944858,
        "Argument of Periapsis(deg)": 0.00010418945913296404,
        "Eccentricity": 0.0,
        "Inclination(deg)": 60.0,
        "Latitude(deg)": -40.6370370985747,
        "Longitude(deg)": -104.53657838609,
        "Mean Anomaly(deg)": 311.5292061454619,
        "RAAN(deg)": 24.99957995086026,
        "Satellite Name": "Test1 129",
        "Satellite Number": 129,
        "Semi-Major Axis(m)": 6980739.136638005,
        "Time(s)": 10
    },
    {
        "Altitude(m)": 617324.3220232702,
        "Argument of Periapsis(deg)": 0.0002083789182659281,
        "Eccentricity": 0.0,
        "Inclination(deg)": 60.0,
        "Latitude(deg)": -40.16871876242691,
        "Longitude(deg)": -104.04721137884809,
        "Mean Anomaly(deg)": 312.1493122909237,
        "RAAN(deg)": 24.999159901720514,
        "Satellite Name": "Test1 129",
        "Satellite Number": 129,
        "Semi-Major Axis(m)": 6980739.136638005,
        "Time(s)": 20
    },
    {
        "Altitude(m)": 617129.7401083676,
        "Argument of Periapsis(deg)": 0.00031256837739889213,
        "Eccentricity": 0.0,
        "Inclination(deg)": 60.0,
        "Latitude(deg)": -39.69794822441715,
        "Longitude(deg)": -103.56508782641453,
        "Mean Anomaly(deg)": 312.76941843638554,
        "RAAN(deg)": 24.998739852580773,
        "Satellite Name": "Test1 129",
        "Satellite Number": 129,
        "Semi-Major Axis(m)": 6980739.136638005,
        "Time(s)": 30
    },
    {
        "Altitude(m)": 616934.3292793471,
        "Argument of Periapsis(deg)": 0.0004167578365318562,
        "Eccentricity": 0.0,
        "Inclination(deg)": 60.0,
        "Latitude(deg)": -39.22479639421279,
        "Longitude(deg)": -103.09002625182919,
        "Mean Anomaly(deg)": 313.38952458184735,
        "RAAN(deg)": 24.998319803441028,
        "Satellite Name": "Test1 129",
        "Satellite Number": 129,
        "Semi-Major Axis(m)": 6980739.136638005,
        "Time(s)": 40
    },
    {
        "Altitude(m)": 616738.1639820433,
        "Argument of Periapsis(deg)": 0.0005209472956648203,
        "Eccentricity": 0.0,
        "Inclination(deg)": 60.0,
        "Latitude(deg)": -38.749332031188814,
        "Longitude(deg)": -102.62184917955425,
        "Mean Anomaly(deg)": 314.00963072730923,
        "RAAN(deg)": 24.997899754301287,
        "Satellite Name": "Test1 129",
        "Satellite Number": 129,
        "Semi-Major Axis(m)": 6980739.136638005,
        "Time(s)": 50
    },
    {
        "Altitude(m)": 616541.3188459831,
        "Argument of Periapsis(deg)": 0.0006251367547977843,
        "Eccentricity": 0.0,
        "Inclination(deg)": 60.0,
        "Latitude(deg)": -38.27162181533986,
        "Longitude(deg)": -102.16038263491389,
        "Mean Anomaly(deg)": 314.629736872771,
        "RAAN(deg)": 24.997479705161545,
        "Satellite Name": "Test1 129",
        "Satellite Number": 129,
        "Semi-Major Axis(m)": 6980739.136638005,
        "Time(s)": 60
    },
    {
        "Altitude(m)": 616343.8686516762,
        "Argument of Periapsis(deg)": 0.0007293262139307483,
        "Eccentricity": 0.0,
        "Inclination(deg)": 60.0,
        "Latitude(deg)": -37.79173041663862,
        "Longitude(deg)": -101.70545563378029,
        "Mean Anomaly(deg)": 315.24984301823287,
        "RAAN(deg)": 24.997059656021804,
        "Satellite Name": "Test1 129",
        "Satellite Number": 129,
        "Semi-Major Axis(m)": 6980739.136638005,
        "Time(s)": 70
    },
    {
        "Altitude(m)": 616145.8882978547,
        "Argument of Periapsis(deg)": 0.0008335156730637124,
        "Eccentricity": 0.0,
        "Inclination(deg)": 60.0,
        "Latitude(deg)": -37.30972056278293,
        "Longitude(deg)": -101.25690117641882,
        "Mean Anomaly(deg)": 315.8699491636947,
        "RAAN(deg)": 24.99663960688206,
        "Satellite Name": "Test1 129",
        "Satellite Number": 129,
        "Semi-Major Axis(m)": 6980739.136638005,
        "Time(s)": 80
    },
    {
        "Altitude(m)": 615947.4527686137,
        "Argument of Periapsis(deg)": 0.0009377051321966765,
        "Eccentricity": 0.0,
        "Inclination(deg)": 60.0,
        "Latitude(deg)": -36.825653105292304,
        "Longitude(deg)": -100.81455572070182,
        "Mean Anomaly(deg)": 316.49005530915656,
        "RAAN(deg)": 24.996219557742318,
        "Satellite Name": "Test1 129",
        "Satellite Number": 129,
        "Semi-Major Axis(m)": 6980739.136638005,
        "Time(s)": 90
    },
    {
        "Altitude(m)": 615748.6371004926,
        "Argument of Periapsis(deg)": 0.0010418945913296407,
        "Eccentricity": 0.0,
        "Inclination(deg)": 60.0,
        "Latitude(deg)": -36.33958708392322,
        "Longitude(deg)": -100.37825864844477,
        "Mean Anomaly(deg)": 317.1101614546184,
        "RAAN(deg)": 24.995799508602577,
        "Satellite Name": "Test1 129",
        "Satellite Number": 129,
        "Semi-Major Axis(m)": 6980739.136638005,
        "Time(s)": 100
    },
    {
        "Altitude(m)": 615549.516349534,
        "Argument of Periapsis(deg)": 0.0011460840504626045,
        "Eccentricity": 0.0,
        "Inclination(deg)": 60.0,
        "Latitude(deg)": -35.851579789382406,
        "Longitude(deg)": -99.94785323854896,
        "Mean Anomaly(deg)": 317.7302676000802,
        "RAAN(deg)": 24.99537945946283,
        "Satellite Name": "Test1 129",
        "Satellite Number": 129,
        "Semi-Major Axis(m)": 6980739.136638005,
        "Time(s)": 110
    },
    {
        "Altitude(m)": 615350.1655582744,
        "Argument of Periapsis(deg)": 0.0012502735095955685,
        "Eccentricity": 0.0,
        "Inclination(deg)": 60.0,
        "Latitude(deg)": -35.361686824329034,
        "Longitude(deg)": -99.5231861219374,
        "Mean Anomaly(deg)": 318.350373745542,
        "RAAN(deg)": 24.994959410323087,
        "Satellite Name": "Test1 129",
        "Satellite Number": 129,
        "Semi-Major Axis(m)": 6980739.136638005,
        "Time(s)": 120
    },
    {
        "Altitude(m)": 615150.659722767,
        "Argument of Periapsis(deg)": 0.0013544629687285324,
        "Eccentricity": 0.0,
        "Inclination(deg)": 60.0,
        "Latitude(deg)": -34.86996216266401,
        "Longitude(deg)": -99.10410673183696,
        "Mean Anomaly(deg)": 318.97047989100383,
        "RAAN(deg)": 24.994539361183342,
        "Satellite Name": "Test1 129",
        "Satellite Number": 129,
        "Semi-Major Axis(m)": 6980739.136638005,
        "Time(s)": 130
    },
    {
        "Altitude(m)": 614951.0737595591,
        "Argument of Periapsis(deg)": 0.0014586524278614966,
        "Eccentricity": 0.0,
        "Inclination(deg)": 60.0,
        "Latitude(deg)": -34.3764582071088,
        "Longitude(deg)": -98.6904682628958,
        "Mean Anomaly(deg)": 319.5905860364657,
        "RAAN(deg)": 24.9941193120436,
        "Satellite Name": "Test1 129",
        "Satellite Number": 129,
        "Semi-Major Axis(m)": 6980739.136638005,
        "Time(s)": 140
    },
    {
        "Altitude(m)": 614751.4824727187,
        "Argument of Periapsis(deg)": 0.0015628418869944607,
        "Eccentricity": 0.0,
        "Inclination(deg)": 60.0,
        "Latitude(deg)": -33.881225845088665,
        "Longitude(deg)": -98.28212711394976,
        "Mean Anomaly(deg)": 320.21069218192747,
        "RAAN(deg)": 24.99369926290386,
        "Satellite Name": "Test1 129",
        "Satellite Number": 129,
        "Semi-Major Axis(m)": 6980739.136638005,
        "Time(s)": 150
    },
    {
        "Altitude(m)": 614551.9605208752,
        "Argument of Periapsis(deg)": 0.0016670313461274247,
        "Eccentricity": 0.0,
        "Inclination(deg)": 60.0,
        "Latitude(deg)": -33.38431450293319,
        "Longitude(deg)": -97.87894232781996,
        "Mean Anomaly(deg)": 320.83079832738935,
        "RAAN(deg)": 24.99327921376412,
        "Satellite Name": "Test1 129",
        "Satellite Number": 129,
        "Semi-Major Axis(m)": 6980739.136638005,
        "Time(s)": 160
    },
    {
        "Altitude(m)": 614352.5823843152,
        "Argument of Periapsis(deg)": 0.0017712208052603888,
        "Eccentricity": 0.0,
        "Inclination(deg)": 60.0,
        "Latitude(deg)": -32.88577219841728,
        "Longitude(deg)": -97.48077654148236,
        "Mean Anomaly(deg)": 321.45090447285116,
        "RAAN(deg)": 24.992859164624374,
        "Satellite Name": "Test1 129",
        "Satellite Number": 129,
        "Semi-Major Axis(m)": 6980739.136638005,
        "Time(s)": 170
    },
    {
        "Altitude(m)": 614153.4223321361,
        "Argument of Periapsis(deg)": 0.001875410264393353,
        "Eccentricity": 0.0,
        "Inclination(deg)": 60.0,
        "Latitude(deg)": -32.38564559166635,
        "Longitude(deg)": -97.08749542127597,
        "Mean Anomaly(deg)": 322.071010618313,
        "RAAN(deg)": 24.992439115484633,
        "Satellite Name": "Test1 129",
        "Satellite Number": 129,
        "Semi-Major Axis(m)": 6980739.136638005,
        "Time(s)": 180
    },
    {
        "Altitude(m)": 613954.5543894827,
        "Argument of Periapsis(deg)": 0.0019795997235263173,
        "Eccentricity": 0.0,
        "Inclination(deg)": 60.0,
        "Latitude(deg)": -31.883980034455696,
        "Longitude(deg)": -96.69896709640456,
        "Mean Anomaly(deg)": 322.6911167637748,
        "RAAN(deg)": 24.99201906634489,
        "Satellite Name": "Test1 129",
        "Satellite Number": 129,
        "Semi-Major Axis(m)": 6980739.136638005,
        "Time(s)": 190
    }
]